{
  "type": "FeatureCollection",
  "features": [
    {
      "type": "Feature",
      "properties": {
        "norad_id": 40376,
        "name": "SMAP",
        "group": "resource",
        "lat": -61.98961210928754,
        "lon": 18.308187958644194,
        "alt_km": 690.3043683793776,
        "timestamp": "2025-12-24T03:53:29.299618+00:00",
        "meta_object_name": "SMAP",
        "meta_object_id": "2015-003A",
        "meta_epoch": "2025-12-23T18:19:59.502432",
        "meta_mean_motion": 14.63357975,
        "meta_eccentricity": 0.000123,
        "meta_inclination": 98.129,
        "meta_ra_of_asc_node": 2.3288,
        "meta_arg_of_pericenter": 92.2413,
        "meta_mean_anomaly": 267.893,
        "meta_ephemeris_type": 0,
        "meta_classification_type": "U",
        "meta_norad_cat_id": 40376,
        "meta_element_set_no": 999,
        "meta_rev_at_epoch": 58196,
        "meta_bstar": 0.00010387,
        "meta_mean_motion_dot": 4.9e-06,
        "meta_mean_motion_ddot": 0,
        "tle_line1": "1 40376U 15003A   25357.76388313  .00000490  00000+0  10387-3 0  9994",
        "tle_line2": "2 40376  98.1290   2.3288 0001230  92.2413 267.8930 14.63357975581965"
      },
      "geometry": {
        "type": "Point",
        "coordinates": [
          18.308187958644194,
          -61.98961210928754
        ]
      }
    },
    {
      "type": "Feature",
      "properties": {
        "norad_id": 40536,
        "name": "KOMPSAT-3A",
        "group": "resource",
        "lat": 64.59047726837763,
        "lon": -43.36159175084619,
        "alt_km": 423.91224372399574,
        "timestamp": "2025-12-24T03:53:29.299629+00:00",
        "meta_object_name": "KOMPSAT-3A",
        "meta_object_id": "2015-014A",
        "meta_epoch": "2025-12-23T21:23:16.207584",
        "meta_mean_motion": 15.4434058,
        "meta_eccentricity": 0.0005594,
        "meta_inclination": 97.6805,
        "meta_ra_of_asc_node": 332.8568,
        "meta_arg_of_pericenter": 102.3988,
        "meta_mean_anomaly": 257.7885,
        "meta_ephemeris_type": 0,
        "meta_classification_type": "U",
        "meta_norad_cat_id": 40536,
        "meta_element_set_no": 999,
        "meta_rev_at_epoch": 59467,
        "meta_bstar": 0.00042761,
        "meta_mean_motion_dot": 0.00019655,
        "meta_mean_motion_ddot": 0,
        "tle_line1": "1 40536U 15014A   25357.89115981  .00019655  00000+0  42761-3 0  9991",
        "tle_line2": "2 40536  97.6805 332.8568 0005594 102.3988 257.7885 15.44340580594671"
      },
      "geometry": {
        "type": "Point",
        "coordinates": [
          -43.36159175084619,
          64.59047726837763
        ]
      }
    },
    {
      "type": "Feature",
      "properties": {
        "norad_id": 40697,
        "name": "SENTINEL-2A",
        "group": "resource",
        "lat": -81.40357389717892,
        "lon": 164.22833694607425,
        "alt_km": 797.1228933733164,
        "timestamp": "2025-12-24T03:53:29.299638+00:00",
        "meta_object_name": "SENTINEL-2A",
        "meta_object_id": "2015-028A",
        "meta_epoch": "2025-12-23T19:55:21.301824",
        "meta_mean_motion": 14.30809482,
        "meta_eccentricity": 0.0001063,
        "meta_inclination": 98.5734,
        "meta_ra_of_asc_node": 70.2073,
        "meta_arg_of_pericenter": 88.8494,
        "meta_mean_anomaly": 271.2811,
        "meta_ephemeris_type": 0,
        "meta_classification_type": "U",
        "meta_norad_cat_id": 40697,
        "meta_element_set_no": 999,
        "meta_rev_at_epoch": 54865,
        "meta_bstar": 7.1006e-05,
        "meta_mean_motion_dot": 1.42e-06,
        "meta_mean_motion_ddot": 0,
        "tle_line1": "1 40697U 15028A   25357.83010766  .00000142  00000+0  71006-4 0  9999",
        "tle_line2": "2 40697  98.5734  70.2073 0001063  88.8494 271.2811 14.30809482548653"
      },
      "geometry": {
        "type": "Point",
        "coordinates": [
          164.22833694607425,
          -81.40357389717892
        ]
      }
    },
    {
      "type": "Feature",
      "properties": {
        "norad_id": 40701,
        "name": "GAOFEN-8",
        "group": "resource",
        "lat": 65.54255012459487,
        "lon": 159.57875157953885,
        "alt_km": 436.16759077429197,
        "timestamp": "2025-12-24T03:53:29.299649+00:00",
        "meta_object_name": "GAOFEN-8",
        "meta_object_id": "2015-030A",
        "meta_epoch": "2025-12-23T19:48:01.002240",
        "meta_mean_motion": 15.38921565,
        "meta_eccentricity": 0.0011458,
        "meta_inclination": 97.6904,
        "meta_ra_of_asc_node": 176.5087,
        "meta_arg_of_pericenter": 99.682,
        "meta_mean_anomaly": 260.5719,
        "meta_ephemeris_type": 0,
        "meta_classification_type": "U",
        "meta_norad_cat_id": 40701,
        "meta_element_set_no": 999,
        "meta_rev_at_epoch": 58441,
        "meta_bstar": 0.0013405,
        "meta_mean_motion_dot": 0.0005194,
        "meta_mean_motion_ddot": 0,
        "tle_line1": "1 40701U 15030A   25357.82501160  .00051940  00000+0  13405-2 0  9999",
        "tle_line2": "2 40701  97.6904 176.5087 0011458  99.6820 260.5719 15.38921565584413"
      },
      "geometry": {
        "type": "Point",
        "coordinates": [
          159.57875157953885,
          65.54255012459487
        ]
      }
    },
    {
      "type": "Feature",
      "properties": {
        "norad_id": 40718,
        "name": "CARBONITE 1 (CBNT-1)",
        "group": "resource",
        "lat": -40.19411421946404,
        "lon": -7.808413540805074,
        "alt_km": 624.4214425512,
        "timestamp": "2025-12-24T03:53:29.299659+00:00",
        "meta_object_name": "CARBONITE 1 (CBNT-1)",
        "meta_object_id": "2015-032D",
        "meta_epoch": "2025-12-23T20:25:22.283040",
        "meta_mean_motion": 14.82792985,
        "meta_eccentricity": 0.0015264,
        "meta_inclination": 97.6399,
        "meta_ra_of_asc_node": 178.406,
        "meta_arg_of_pericenter": 145.8223,
        "meta_mean_anomaly": 214.3977,
        "meta_ephemeris_type": 0,
        "meta_classification_type": "U",
        "meta_norad_cat_id": 40718,
        "meta_element_set_no": 999,
        "meta_rev_at_epoch": 56335,
        "meta_bstar": 0.00035086,
        "meta_mean_motion_dot": 2.792e-05,
        "meta_mean_motion_ddot": 0,
        "tle_line1": "1 40718U 15032D   25357.85095235  .00002792  00000+0  35086-3 0  9994",
        "tle_line2": "2 40718  97.6399 178.4060 0015264 145.8223 214.3977 14.82792985563354"
      },
      "geometry": {
        "type": "Point",
        "coordinates": [
          -7.808413540805074,
          -40.19411421946404
        ]
      }
    },
    {
      "type": "Feature",
      "properties": {
        "norad_id": 40878,
        "name": "YAOGAN-27",
        "group": "resource",
        "lat": -78.9230562082224,
        "lon": 52.840099016446175,
        "alt_km": 1201.5592975174122,
        "timestamp": "2025-12-24T03:53:29.299669+00:00",
        "meta_object_name": "YAOGAN-27",
        "meta_object_id": "2015-040A",
        "meta_epoch": "2025-12-23T21:01:36.013728",
        "meta_mean_motion": 13.16061763,
        "meta_eccentricity": 0.0007577,
        "meta_inclination": 100.1013,
        "meta_ra_of_asc_node": 346.9921,
        "meta_arg_of_pericenter": 259.0333,
        "meta_mean_anomaly": 100.9929,
        "meta_ephemeris_type": 0,
        "meta_classification_type": "U",
        "meta_norad_cat_id": 40878,
        "meta_element_set_no": 999,
        "meta_rev_at_epoch": 49460,
        "meta_bstar": 0.00097362,
        "meta_mean_motion_dot": 3.27e-06,
        "meta_mean_motion_ddot": 0,
        "tle_line1": "1 40878U 15040A   25357.87611127  .00000327  00000+0  97362-3 0  9993",
        "tle_line2": "2 40878 100.1013 346.9921 0007577 259.0333 100.9929 13.16061763494607"
      },
      "geometry": {
        "type": "Point",
        "coordinates": [
          52.840099016446175,
          -78.9230562082224
        ]
      }
    },
    {
      "type": "Feature",
      "properties": {
        "norad_id": 40894,
        "name": "GAOFEN-9 01",
        "group": "resource",
        "lat": 51.568589913392024,
        "lon": -133.62040573502028,
        "alt_km": 629.2651909756014,
        "timestamp": "2025-12-24T03:53:29.299680+00:00",
        "meta_object_name": "GAOFEN-9 01",
        "meta_object_id": "2015-047A",
        "meta_epoch": "2025-12-23T20:50:19.093920",
        "meta_mean_motion": 14.82448101,
        "meta_eccentricity": 0.0027481,
        "meta_inclination": 97.6528,
        "meta_ra_of_asc_node": 36.3425,
        "meta_arg_of_pericenter": 358.3636,
        "meta_mean_anomaly": 1.7484,
        "meta_ephemeris_type": 0,
        "meta_classification_type": "U",
        "meta_norad_cat_id": 40894,
        "meta_element_set_no": 999,
        "meta_rev_at_epoch": 55421,
        "meta_bstar": 0.00013249,
        "meta_mean_motion_dot": 1.018e-05,
        "meta_mean_motion_ddot": 0,
        "tle_line1": "1 40894U 15047A   25357.86827655  .00001018  00000+0  13249-3 0  9992",
        "tle_line2": "2 40894  97.6528  36.3425 0027481 358.3636   1.7484 14.82448101554217"
      },
      "geometry": {
        "type": "Point",
        "coordinates": [
          -133.62040573502028,
          51.568589913392024
        ]
      }
    }
  ]
}